[Satellite]
VERSION=1.1
NAME=COSMOS 2278
NICKNAME=COSMOS 2278
TLE1=1 23087U 94023A   20157.99869758  .00000104  00000-0  79703-4 0  9999
TLE2=2 23087  71.0553 251.5948 0009338 346.0442  14.0421 14.13812913347822
STATUS=0
